1 45679U 20035Y   23249.25492938  .00014286  00000-0  97558-3 0  9991
2 45679  53.0537 206.1641 0001130 106.6742 253.4371 15.06416002180499
1 45679U 20035Y   23249.85205871  .00010126  00000-0  69792-3 0  9993
2 45679  53.0531 203.4834 0001810  92.7794 267.3402 15.06389889180989
1 45679U 20035Y   23249.85205871  .00010126  00000-0  69792-3 0  9993
2 45679  53.0531 203.4834 0001810  92.7794 267.3402 15.06389889180585
1 45679U 20035Y   23250.25014794  .00001182  00000-0  98269-4 0  9995
2 45679  53.0522 201.6948 0001500  92.6108 267.5053 15.06375788181044
1 45679U 20035Y   23250.25014794  .00001182  00000-0  98269-4 0  9995
2 45679  53.0522 201.6948 0001500  92.6108 267.5053 15.06375788180649
1 45679U 20035Y   23251.11265514  .00009578  00000-0  66092-3 0  9994
2 45679  53.0526 197.8237 0001143  97.5678 262.5441 15.06406642180773
1 45679U 20035Y   23251.24534983  .00018104  00000-0  12307-2 0  9991
2 45679  53.0531 197.2286 0001154  96.4289 263.6831 15.06413957181194
1 45679U 20035Y   23252.10786796 -.00007789  00000-0 -50492-3 0  9995
2 45679  53.0532 193.3572 0001548  97.9187 262.1978 15.06373606180922
1 45679U 20035Y   23252.57230461  .00017867  00000-0  12157-2 0  9990
2 45679  53.0535 191.2730 0001449  96.0414 264.0740 15.06387573181399
1 45679U 20035Y   23252.57230461  .00017867  00000-0  12157-2 0  9990
2 45679  53.0535 191.2730 0001449  96.0414 264.0740 15.06387573180994
1 45679U 20035Y   23253.10307463  .00043882  00000-0  29436-2 0  9991
2 45679  53.0531 188.8906 0001371  88.2616 271.8530 15.06437911181073
1 45679U 20035Y   23253.23576483  .00037710  00000-0  25340-2 0  9998
2 45679  53.0532 188.2948 0001406  90.1459 269.9691 15.06443579181499
1 45679U 20035Y   23253.23576483  .00037710  00000-0  25340-2 0  9998
2 45679  53.0532 188.2948 0001406  90.1459 269.9691 15.06443579181095
1 45679U 20035Y   23254.09828378  .00025590  00000-0  17307-2 0  9993
2 45679  53.0532 184.4254 0001213  93.7925 266.3202 15.06398008181226
1 45679U 20035Y   23254.49636605  .00026101  00000-0  17643-2 0  9999
2 45679  53.0536 182.6365 0001316  97.3035 262.8103 15.06407815181687
1 45679U 20035Y   23254.49636605  .00026101  00000-0  17643-2 0  9999
2 45679  53.0536 182.6365 0001316  97.3035 262.8103 15.06407815181283
1 45679U 20035Y   23255.15982318  .00022574  00000-0  15280-2 0  9993
2 45679  53.0540 179.6575 0001374  84.8313 275.2833 15.06436850181785
1 45679U 20035Y   23255.75694815  .00004806  00000-0  34121-3 0  9995
2 45679  53.0539 176.9752 0002260  82.0472 278.0773 15.06410198181872
1 45679U 20035Y   23255.75694815  .00004806  00000-0  34121-3 0  9995
2 45679  53.0539 176.9752 0002260  82.0472 278.0773 15.06410198181478
1 45679U 20035Y   23256.15502676  .00018300  00000-0  12435-2 0  9990
2 45679  53.0542 175.1891 0001569  93.3170 266.7998 15.06422472181930
1 45679U 20035Y   23256.15502676  .00018300  00000-0  12435-2 0  9990
2 45679  53.0542 175.1891 0001569  93.3170 266.7998 15.06422472181536
1 45679U 20035Y   23257.08387611 -.00004136  00000-0 -25901-3 0  9990
2 45679  53.0541 171.0201 0001449  92.0971 268.0184 15.06389926181670
1 45679U 20035Y   23257.15022311 -.00004551  00000-0 -28688-3 0  9997
2 45679  53.0540 170.7221 0001394  87.4047 272.7101 15.06391653182085
1 45679U 20035Y   23258.14544457  .00007173  00000-0  50021-3 0  9994
2 45679  53.0543 166.2522 0001451  91.8338 268.2817 15.06382315182234
1 45679U 20035Y   23258.14544457  .00007173  00000-0  50021-3 0  9994
2 45679  53.0543 166.2522 0001451  91.8338 268.2817 15.06382315181839
1 45679U 20035Y   23259.00794272  .00016213  00000-0  11041-2 0  9995
2 45679  53.0546 162.3817 0001479  89.8320 270.2839 15.06424840181965
1 45679U 20035Y   23259.14063210  .00019920  00000-0  13510-2 0  9992
2 45679  53.0544 161.7863 0001478  88.2577 271.8582 15.06438999182382
1 45679U 20035Y   23259.14063210  .00019920  00000-0  13510-2 0  9992
2 45679  53.0544 161.7863 0001478  88.2577 271.8582 15.06438999181987
1 45679U 20035Y   23260.06948720  .00007781  00000-0  54051-3 0  9991
2 45679  53.0548 157.6172 0001325 101.8873 258.2264 15.06412455182122
1 45679U 20035Y   23260.13583362  .00012899  00000-0  88288-3 0  9991
2 45679  53.0550 157.3184 0001350 104.0157 256.0982 15.06417088182538
1 45679U 20035Y   23260.73294567  .00027546  00000-0  18588-2 0  9993
2 45679  53.0544 154.6386 0001251 106.3891 253.7235 15.06443189182227
1 45679U 20035Y   23261.06466888  .00029296  00000-0  19743-2 0  9995
2 45679  53.0541 153.1494 0001308 108.6073 251.5058 15.06459887182678
1 45679U 20035Y   23261.86083333  .00011229  00000-0  77106-3 0  9998
2 45679  53.0540 149.5750 0002737 140.3345 219.7844 15.06421383182795
1 45679U 20035Y   23262.05988327  .00032114  00000-0  21657-2 0  9992
2 45679  53.0535 148.6822 0001177  88.0579 272.0545 15.06388602182429
1 45679U 20035Y   23263.05509849  .00010190  00000-0  70261-3 0  9997
2 45679  53.0534 144.2154 0001653 107.0139 253.1032 15.06366605182577
1 45679U 20035Y   23263.38684157  .00003827  00000-0  27596-3 0  9991
2 45679  53.0533 142.7250 0001572  91.0023 269.1146 15.06363397183029
1 45679U 20035Y   23263.38684157  .00003827  00000-0  27596-3 0  9991
2 45679  53.0533 142.7250 0001572  91.0023 269.1146 15.06363397182624
1 45679U 20035Y   23263.91762109  .00006218  00000-0  43612-3 0  9998
2 45679  53.0548 140.3406 0001534 101.4524 258.6637 15.06386454183108
1 45679U 20035Y   23264.05031855  .00013597  00000-0  93023-3 0  9990
2 45679  53.0541 139.7457 0001430  91.7670 268.3483 15.06389128183127
1 45679U 20035Y   23264.05031855  .00013597  00000-0  93023-3 0  9990
2 45679  53.0541 139.7457 0001430  91.7670 268.3483 15.06389128182722
1 45679U 20035Y   23264.91281708  .00014191  00000-0  96888-3 0  9992
2 45679  53.0527 135.8751 0001289  87.2926 272.8210 15.06430499183251
1 45679U 20035Y   23265.04550679  .00014773  00000-0  10076-2 0  9993
2 45679  53.0529 135.2784 0001312  88.5054 271.6085 15.06437050183275
1 45679U 20035Y   23265.04550679  .00014773  00000-0  10076-2 0  9993
2 45679  53.0529 135.2784 0001312  88.5054 271.6085 15.06437050182870
1 45679U 20035Y   23265.77532278  .00002796  00000-0  20646-3 0  9995
2 45679  53.0541 132.0023 0001366  93.6919 266.4226 15.06406514182983
1 45679U 20035Y   23265.90801607  .00004901  00000-0  34758-3 0  9994
2 45679  53.0534 131.4073 0001216  90.0435 270.0693 15.06409615183403
1 45679U 20035Y   23266.04071002  .00008461  00000-0  58608-3 0  9993
2 45679  53.0535 130.8115 0001199  80.8648 279.2477 15.06410762183425
1 45679U 20035Y   23267.03589504  .00018585  00000-0  12618-2 0  9992
2 45679  53.0539 126.3431 0001301  74.2281 285.8851 15.06444201183575
1 45679U 20035Y   23267.03589504  .00018585  00000-0  12618-2 0  9992
2 45679  53.0539 126.3431 0001301  74.2281 285.8851 15.06444201183171
1 45679U 20035Y   23267.76571807 -.00000829  00000-0 -36786-4 0  9997
2 45679  53.0539 123.0665 0001275  88.8835 271.2300 15.06397884183284
1 45679U 20035Y   23267.83206510 -.00000697  00000-0 -27881-4 0  9990
2 45679  53.0540 122.7685 0001284  91.8902 268.2234 15.06395906183693
1 45679U 20035Y   23268.29649416  .00028934  00000-0  19523-2 0  9991
2 45679  53.0539 120.6838 0001253  95.5407 264.5725 15.06421186183767
1 45679U 20035Y   23268.29649416  .00028934  00000-0  19523-2 0  9991
2 45679  53.0539 120.6838 0001253  95.5407 264.5725 15.06421186183363
1 45679U 20035Y   23268.76091708  .00022917  00000-0  15512-2 0  9997
2 45679  53.0538 118.5992 0001167  93.4857 266.6266 15.06428589183434
1 45679U 20035Y   23268.89360712  .00022416  00000-0  15175-2 0  9994
2 45679  53.0537 118.0037 0001168  94.2836 265.8287 15.06435733183854
1 45679U 20035Y   23269.55708861  .00010945  00000-0  75284-3 0  9991
2 45679  53.0532 115.0254 0001573  84.0597 276.0571 15.06385003183953
1 45679U 20035Y   23269.75613535  .00015608  00000-0  10653-2 0  9995
2 45679  53.0530 114.1320 0001598  69.1874 290.9286 15.06368108183588
1 45679U 20035Y   23269.88883143  .00021971  00000-0  14906-2 0  9998
2 45679  53.0526 113.5369 0001485  75.0172 285.0982 15.06366794184006
1 45679U 20035Y   23270.28691910  .00021863  00000-0  14829-2 0  9997
2 45679  53.0525 111.7492 0001459  79.5420 280.5734 15.06380049184068
1 45679U 20035Y   23270.81769663  .00013867  00000-0  94815-3 0  9996
2 45679  53.0529 109.3649 0001454  82.5042 277.6112 15.06393589183742
1 45679U 20035Y   23271.74655490  .00008017  00000-0  55648-3 0  9993
2 45679  53.0525 105.1956 0001480  77.8027 282.3128 15.06401618183880
1 45679U 20035Y   23271.81290166  .00007433  00000-0  51738-3 0  9993
2 45679  53.0526 104.8977 0001469  77.9263 282.1890 15.06401429184290
1 45679U 20035Y   23272.54270871  .00012010  00000-0  82329-3 0  9992
2 45679  53.0527 101.6212 0001441  76.2599 283.8550 15.06421596184403
1 45679U 20035Y   23272.74174415  .00013148  00000-0  89917-3 0  9994
2 45679  53.0524 100.7288 0001470  73.0517 287.0633 15.06430422184035
1 45679U 20035Y   23272.80808972  .00013157  00000-0  89975-3 0  9997
2 45679  53.0524 100.4313 0001520  68.6224 291.4927 15.06432191184447
1 45679U 20035Y   23273.53790447  .00001505  00000-0  11990-3 0  9991
2 45679  53.0530  97.1534 0001430  95.8488 264.2663 15.06408864184158
1 45679U 20035Y   23273.80329254  .00002230  00000-0  16853-3 0  9994
2 45679  53.0534  95.9615 0001307  91.0195 269.0944 15.06400700184194
1 45679U 20035Y   23274.53310593  .00014045  00000-0  95949-3 0  9991
2 45679  53.0535  92.6842 0001275  94.7990 265.3144 15.06414785184704
1 45679U 20035Y   23274.79848758  .00013778  00000-0  94141-3 0  9993
2 45679  53.0533  91.4936 0001252  99.3572 260.7558 15.06425487184748
1 45679U 20035Y   23274.79848758  .00013778  00000-0  94141-3 0  9993
2 45679  53.0533  91.4936 0001252  99.3572 260.7558 15.06425487184344
1 45679U 20035Y   23275.19656588  .00006960  00000-0  48546-3 0  9999
2 45679  53.0539  89.7055 0001367  81.4820 278.6324 15.06419343184407
1 45679U 20035Y   23275.86004202  .00005743  00000-0  40416-3 0  9999
2 45679  53.0540  86.7284 0001446  83.6854 276.4299 15.06396024184901
